HORUS 2                 
1 55844U 23032A   26165.82389258  .00005645  00000+0  24011-3 0  9991
2 55844  97.3541 241.2717 0002248 107.7767 252.3715 15.23404903181121
GLOBAL-19               
1 55982U 23041B   26165.82575904  .00011033  00000+0  29501-3 0  9996
2 55982  42.0000 215.6569 0009212 346.7815  13.2782 15.37979148181567
BRO-9                   
1 56185U 23054H   26164.33093152  .00709651  23706-3  12966-2 0  9999
2 56185  97.2935  82.5232 0007327 156.5916 203.5698 16.01367589178472
ION SCV-010             
1 56192U 23054Q   26165.66849274  .00004353  00000+0  17094-3 0  9991
2 56192  97.3787  55.2023 0011911 206.4799 153.5833 15.26178443175814
TELEOS-2                
1 56310U 23057C   26165.75668280  .00000688  00000+0  33675-7 0  9996
2 56310   9.9878 221.8949 0000658 347.7625  12.2573 14.96393393172433
SNIPE 4                 
1 56744U 23072B   26165.81340355  .00019275  00000+0  44954-3 0  9991
2 56744  97.5245  11.7437 0004572 348.5265  11.5877 15.42269667169748
SNIPE 2                 
1 56745U 23072C   26165.86311855  .00025550  00000+0  51119-3 0  9994
2 56745  97.5241  14.8227 0004400  22.4034 337.7407 15.46751674169883
2023-072G               
1 56749U 23072G   26165.86914579  .00028973  00000+0  50917-3 0  9997
2 56749  97.4901  13.6296 0003067  16.8642 343.2711 15.50460900170103
GEISAT PRECURSOR        
1 56934U 23084C   26165.87153843  .00006590  00000+0  19890-3 0  9992
2 56934  97.6219 306.7480 0005165   6.9736 353.1577 15.34623746167173
BLACKJACK ACES-3        
1 56950U 23084U   26165.86370613  .00005190  00000+0  25536-3 0  9994
2 56950  97.6209 301.0365 0002752  42.7281 317.4166 15.18450552166814
BLACKJACK ACES-2        
1 56955U 23084Z   26165.86990983  .00006193  00000+0  30341-3 0  9991
2 56955  97.6205 301.1274 0001106  71.5980 288.5374 15.18519401166822
BLACKJACK ACES-1        
1 56956U 23084AA  26165.85792218  .00006840  00000+0  33416-3 0  9997
2 56956  97.6196 300.8893 0001219 101.5024 258.6347 15.18579682116542
ION SCV-011             
1 56957U 23084AB  26165.84097631  .00004587  00000+0  16677-3 0  9990
2 56957  98.1371 352.9029 0008143  52.8409 307.3572 15.28826040165451
GHOST-3                 
1 56958U 23084AC  26165.38362486  .00016758  00000+0  32435-3 0  9996
2 56958  97.6207 313.8051 0005567 305.8306  54.2426 15.47799344167588
TOMORROW-R2             
1 56962U 23084AG  26165.49194714  .00451668  98318-4  62750-3 0  9990
2 56962  97.6047 329.3341 0008261 243.6738 116.3694 16.05927873168629
AFR-1                   
1 56964U 23084AJ  26165.87564472  .00004192  00000+0  15363-3 0  9996
2 56964  97.6271 302.5106 0010150 355.4478   4.6667 15.28538508166876
METEOR-M2 3             
1 57166U 23091A   26165.85007789  .00000007  00000+0  21697-4 0  9999
2 57166  98.6090 220.8762 0004227 161.3087 198.8248 14.24046599154180
UMKA 1 (RS40S)          
1 57172U 23091G   26165.79103736  .00006087  00000+0  27859-3 0  9997
2 57172  97.5054 224.4972 0014164 125.1257 235.1308 15.20793943163648
2023-091H               
1 57173U 23091H   26165.82638081  .00010258  00000+0  37078-3 0  9997
2 57173  97.5054 228.9990 0011257 120.1488 240.0869 15.28592341163946
2023-091J               
1 57174U 23091J   26165.80894791  .00003554  00000+0  19944-3 0  9991
2 57174  97.5058 218.9392 0014147 150.4581 209.7452 15.13913301163270
CUBEBEL 2 (EU11S)       
1 57175U 23091K   26165.82804115  .00011810  00000+0  41977-3 0  9990
2 57175  97.5057 229.0235 0011269 121.7238 238.5101 15.29101989163944
SITRO-AIS 5 (KATYS)     
1 57176U 23091L   26165.84551087  .00011700  00000+0  41177-3 0  9990
2 57176  97.5066 229.7224 0012792 110.7184 249.5429 15.29411084163989
ZORKIY-2M 1             
1 57177U 23091M   26165.84335476  .00007130  00000+0  32491-3 0  9994
2 57177  97.5095 224.8157 0014726 122.5050 237.7611 15.20876984163645
CUBESX-HSE 3 (RS42S)    
1 57178U 23091N   26165.82121593  .00012322  00000+0  41085-3 0  9994
2 57178  97.5098 231.3783 0012080 101.9731 258.2864 15.31163398164060
MONITOR-3 (RS58S)       
1 57180U 23091Q   26165.84049374  .00009859  00000+0  36489-3 0  9998
2 57180  97.5090 229.2690 0013135 107.9985 252.2687 15.27801807163938
MONITOR-4 (RS57S)       
1 57182U 23091S   26165.81968088  .00009564  00000+0  35317-3 0  9991
2 57182  97.5083 229.2192 0013109 108.3747 251.8919 15.27886529163938
MONITOR-2 (RS39S)       
1 57184U 23091U   26165.80928726  .00004442  00000+0  21583-3 0  9997
2 57184  97.5076 224.1074 0012659 118.2703 241.9810 15.18891187163594
SVYATOBOR 1 (RS60S)     
1 57187U 23091X   26165.83074584  .00008342  00000+0  32109-3 0  9996
2 57187  97.5095 229.6345 0010906 101.4406 258.8057 15.26580849163955
HORS 1                  
1 57188U 23091Y   26165.81644919  .00009080  00000+0  34816-3 0  9997
2 57188  97.5073 229.3828 0010370 101.2751 258.9653 15.26686176163954
VIZARD-METEO (RS38S)    
1 57189U 23091Z   26165.86749095  .00016199  00000+0  46411-3 0  9997
2 57189  97.5098 235.3058 0008401  84.6116 275.6085 15.35962719164333
