OBJECT_NAME,OBJECT_ID,EPOCH,MEAN_MOTION,ECCENTRICITY,INCLINATION,RA_OF_ASC_NODE,ARG_OF_PERICENTER,MEAN_ANOMALY,EPHEMERIS_TYPE,CLASSIFICATION_TYPE,NORAD_CAT_ID,ELEMENT_SET_NO,REV_AT_EPOCH,BSTAR,MEAN_MOTION_DOT,MEAN_MOTION_DDOT
HORUS 2,2023-032A,2026-06-14T19:46:24.318912,15.23404903,.0002248,97.3541,241.2717,107.7767,252.3715,0,U,55844,999,18112,.24011E-3,.5645E-4,0
GLOBAL-19,2023-041B,2026-06-14T19:49:05.581056,15.37979148,.0009212,42.0000,215.6569,346.7815,13.2782,0,U,55982,999,18156,.29501E-3,.11033E-3,0
BRO-9,2023-054H,2026-06-13T07:56:32.483328,16.01367589,.00073271,97.2935,82.5232,156.5916,203.5698,0,U,56185,999,17847,.12965876E-2,.709651E-2,.23706133E-3
ION SCV-010,2023-054Q,2026-06-14T16:02:37.772736,15.26178443,.0011911,97.3787,55.2023,206.4799,153.5833,0,U,56192,999,17581,.17094E-3,.4353E-4,0
TELEOS-2,2023-057C,2026-06-14T18:09:37.393920,14.96393393,.0000658,9.9878,221.8949,347.7625,12.2573,0,U,56310,999,17243,.33675E-7,.688E-5,0
SNIPE 4,2023-072B,2026-06-14T19:31:18.066720,15.42269667,.0004572,97.5245,11.7437,348.5265,11.5877,0,U,56744,999,16974,.44954E-3,.19275E-3,0
SNIPE 2,2023-072C,2026-06-14T20:42:53.442720,15.46751674,.00044,97.5241,14.8227,22.4034,337.7407,0,U,56745,999,16988,.51119E-3,.2555E-3,0
2023-072G,2023-072G,2026-06-14T20:51:34.196256,15.50460900,.0003067,97.4901,13.6296,16.8642,343.2711,0,U,56749,999,17010,.50917E-3,.28973E-3,0
GEISAT PRECURSOR,2023-084C,2026-06-14T20:55:00.920352,15.34623746,.0005165,97.6219,306.7480,6.9736,353.1577,0,U,56934,999,16717,.1989E-3,.659E-4,0
BLACKJACK ACES-3,2023-084U,2026-06-14T20:43:44.209632,15.18450552,.0002752,97.6209,301.0365,42.7281,317.4166,0,U,56950,999,16681,.25536E-3,.519E-4,0
BLACKJACK ACES-2,2023-084Z,2026-06-14T20:52:40.209312,15.18519401,.0001106,97.6205,301.1274,71.5980,288.5374,0,U,56955,999,16682,.30341E-3,.6193E-4,0
BLACKJACK ACES-1,2023-084AA,2026-06-14T20:35:24.476352,15.18579682,.0001219,97.6196,300.8893,101.5024,258.6347,0,U,56956,999,11654,.33416E-3,.684E-4,0
ION SCV-011,2023-084AB,2026-06-14T20:11:00.353184,15.28826040,.0008143,98.1371,352.9029,52.8409,307.3572,0,U,56957,999,16545,.16677E-3,.4587E-4,0
GHOST-3,2023-084AC,2026-06-14T09:12:25.187904,15.47799344,.00055678,97.6207,313.8051,305.8306,54.2426,0,U,56958,999,16758,.32434903E-3,.16758E-3,0
TOMORROW-R2,2023-084AG,2026-06-14T11:48:24.232896,16.05927873,.00082614,97.6047,329.3341,243.6738,116.3694,0,U,56962,999,16862,.62749795E-3,.451668E-2,.98318241E-4
AFR-1,2023-084AJ,2026-06-14T21:00:55.703808,15.28538508,.001015,97.6271,302.5106,355.4478,4.6667,0,U,56964,999,16687,.15363E-3,.4192E-4,0
METEOR-M2 3,2023-091A,2026-06-14T20:24:06.729696,14.24046599,.0004227,98.6090,220.8762,161.3087,198.8248,0,U,57166,999,15418,.21697E-4,.7E-7,0
UMKA 1 (RS40S),2023-091G,2026-06-14T18:59:05.627904,15.20793943,.0014164,97.5054,224.4972,125.1257,235.1308,0,U,57172,999,16364,.27859E-3,.6087E-4,0
2023-091H,2023-091H,2026-06-14T19:49:59.301984,15.28592341,.0011257,97.5054,228.9990,120.1488,240.0869,0,U,57173,999,16394,.37078E-3,.10258E-3,0
2023-091J,2023-091J,2026-06-14T19:24:53.099424,15.13913301,.0014147,97.5058,218.9392,150.4581,209.7452,0,U,57174,999,16327,.19944E-3,.3554E-4,0
CUBEBEL 2 (EU11S),2023-091K,2026-06-14T19:52:22.755360,15.29101989,.0011269,97.5057,229.0235,121.7238,238.5101,0,U,57175,999,16394,.41977E-3,.1181E-3,0
SITRO-AIS 5 (KATYS),2023-091L,2026-06-14T20:17:32.139168,15.29411084,.0012792,97.5066,229.7224,110.7184,249.5429,0,U,57176,999,16398,.41177E-3,.117E-3,0
ZORKIY-2M 1,2023-091M,2026-06-14T20:14:25.851264,15.20876984,.0014726,97.5095,224.8157,122.5050,237.7611,0,U,57177,999,16364,.32491E-3,.713E-4,0
CUBESX-HSE 3 (RS42S),2023-091N,2026-06-14T19:42:33.056352,15.31163398,.001208,97.5098,231.3783,101.9731,258.2864,0,U,57178,999,16406,.41085E-3,.12322E-3,0
MONITOR-3 (RS58S),2023-091Q,2026-06-14T20:10:18.659136,15.27801807,.0013135,97.5090,229.2690,107.9985,252.2687,0,U,57180,999,16393,.36489E-3,.9859E-4,0
MONITOR-4 (RS57S),2023-091S,2026-06-14T19:40:20.428032,15.27886529,.0013109,97.5083,229.2192,108.3747,251.8919,0,U,57182,999,16393,.35317E-3,.9564E-4,0
MONITOR-2 (RS39S),2023-091U,2026-06-14T19:25:22.419264,15.18891187,.0012659,97.5076,224.1074,118.2703,241.9810,0,U,57184,999,16359,.21583E-3,.4442E-4,0
SVYATOBOR 1 (RS60S),2023-091X,2026-06-14T19:56:16.440576,15.26580849,.0010906,97.5095,229.6345,101.4406,258.8057,0,U,57187,999,16395,.32109E-3,.8342E-4,0
HORS 1,2023-091Y,2026-06-14T19:35:41.210016,15.26686176,.001037,97.5073,229.3828,101.2751,258.9653,0,U,57188,999,16395,.34816E-3,.908E-4,0
VIZARD-METEO (RS38S),2023-091Z,2026-06-14T20:49:11.218080,15.35962719,.0008401,97.5098,235.3058,84.6116,275.6085,0,U,57189,999,16433,.46411E-3,.16199E-3,0
